QZS-1R                  
1 49336U 21096A   23266.86124045 -.00000217  00000+0  00000+0 0  9991
2 49336  35.3919  94.6161 0744567 269.6374  82.6198  1.00285931  7004
